NORAD_CAT_ID,OBJECT_NAME,OBJECT_TYPE,EPOCH,MEAN_MOTION,ECCENTRICITY,INCLINATION,RA_OF_ASC_NODE,ARG_OF_PERICENTER,MEAN_ANOMALY,BSTAR,MEAN_MOTION_DOT,MEAN_MOTION_DDOT,TLE_LINE0,TLE_LINE1,TLE_LINE2,SEMIMAJOR_AXIS,PERIOD,APOGEE,PERIGEE,DECAYED
55678.0,STARLINK-5314,PAYLOAD,2023-10-08 21:32:13,14.98328441,0.0002917,70.0012,230.1682,272.4913,87.5912,8.96e-05,9.76e-06,0.0,0 STARLINK-5314,1 55678U 23021BC  23281.89737359  .00000976  00000-0  89600-4 0  9995,2 55678  70.0012 230.1682 0002917 272.4913  87.5912 14.98328441 37053,6950.198,96.107,574.09,570.035,0.0
55678.0,STARLINK-5314,PAYLOAD,2023-10-09 07:09:00,14.98334177,0.0002734,70.0017,229.1586,269.1919,90.8927,0.00016008,1.818e-05,0.0,0 STARLINK-5314,1 55678U 23021BC  23282.29792770  .00001818  00000-0  16008-3 0  9995,2 55678  70.0017 229.1586 0002734 269.1919  90.8927 14.98334177 37118,6950.18,96.107,573.945,570.145,0.0
55678.0,STARLINK-5314,PAYLOAD,2023-10-09 21:34:14,14.98327993,0.0002416,70.0025,227.645,253.1193,106.9701,3.0172e-05,2.67e-06,0.0,0 STARLINK-5314,1 55678U 23021BC  23282.89877355  .00000267  00000-0  30172-4 0  9990,2 55678  70.0025 227.6450 0002416 253.1193 106.9701 14.98327993 37201,6950.199,96.107,573.743,570.385,0.0
55678.0,STARLINK-5314,PAYLOAD,2023-10-10 02:22:38,14.98328043,0.0002828,70.001,227.1383,264.6539,95.4297,-1.6394e-05,-2.89e-06,0.0,0 STARLINK-5314,1 55678U 23021BC  23283.09905496 -.00000289  00000-0 -16394-4 0  9997,2 55678  70.0010 227.1383 0002828 264.6539  95.4297 14.98328043 36931,6950.199,96.107,574.029,570.098,0.0
55678.0,STARLINK-5314,PAYLOAD,2023-10-10 13:35:34,14.98369426,0.0002119,70.0035,225.9589,288.4972,71.5957,-0.00087754,-0.00010558,0.0,0 STARLINK-5314,1 55678U 23021BC  23283.56637009 -.00010558  00000-0 -87754-3 0  9998,2 55678  70.0035 225.9589 0002119 288.4972  71.5957 14.98369426 37300,6950.071,96.104,573.409,570.463,0.0
55678.0,STARLINK-5314,PAYLOAD,2023-10-10 21:36:15,14.98321279,0.0002542,70.0017,225.1195,271.8359,88.2509,-0.00013158,-1.662e-05,0.0,0 STARLINK-5314,1 55678U 23021BC  23283.90018439 -.00001662  00000-0 -13158-3 0  9999,2 55678  70.0017 225.1195 0002542 271.8359  88.2509 14.98321279 37357,6950.22,96.108,573.852,570.318,0.0
55678.0,STARLINK-5314,PAYLOAD,2023-10-11 02:24:40,14.98320309,0.0002854,70.0007,224.6136,273.2583,86.825,-0.0001152,-1.467e-05,0.0,0 STARLINK-5314,1 55678U 23021BC  23284.10046525 -.00001467  00000-0 -11520-3 0  9993,2 55678  70.0007 224.6136 0002854 273.2583  86.8250 14.98320309 37086,6950.223,96.108,574.071,570.104,0.0
55678.0,STARLINK-5314,PAYLOAD,2023-10-11 05:36:55,14.98330948,0.0002363,70.0025,224.2788,242.4119,117.68,1.2973e-06,-7.7e-07,0.0,0 STARLINK-5314,1 55678U 23021BC  23284.23397479 -.00000077  00000-0  12973-5 0  9994,2 55678  70.0025 224.2788 0002363 242.4119 117.6800 14.98330948 37100,6950.19,96.107,573.697,570.413,0.0
55678.0,STARLINK-5314,PAYLOAD,2023-10-11 13:37:36,14.98328543,0.0002169,70.0035,223.4381,277.7887,82.3025,-1.5312e-05,-2.76e-06,0.0,0 STARLINK-5314,1 55678U 23021BC  23284.56777881 -.00000276  00000-0 -15312-4 0  9990,2 55678  70.0035 223.4381 0002169 277.7887  82.3025 14.98328543 37451,6950.197,96.107,573.57,570.555,0.0
55678.0,STARLINK-5314,PAYLOAD,2023-10-12 04:02:48,14.98323166,0.0002691,70.0007,221.9196,263.3272,96.7581,1.7979e-05,1.22e-06,0.0,0 STARLINK-5314,1 55678U 23021BC  23285.16862158  .00000122  00000-0  17979-4 0  9998,2 55678  70.0007 221.9196 0002691 263.3272  96.7581 14.98323166 37245,6950.214,96.107,573.949,570.209,0.0
55678.0,STARLINK-5314,PAYLOAD,2023-10-12 13:39:36,14.98330485,0.0002741,70.0014,220.9105,268.9572,91.1273,1.0921e-05,3.7e-07,0.0,0 STARLINK-5314,1 55678U 23021BC  23285.56917803  .00000037  00000-0  10921-4 0  9995,2 55678  70.0014 220.9105 0002741 268.9572  91.1273 14.98330485 37601,6950.191,96.107,573.961,570.151,0.0
55678.0,STARLINK-5314,PAYLOAD,2023-10-12 21:40:17,14.98323705,0.0002878,70.001,220.0685,270.59,89.4929,0.00019054,2.181e-05,0.0,0 STARLINK-5314,1 55678U 23021BC  23285.90297798  .00002181  00000-0  19054-3 0  9994,2 55678  70.0010 220.0685 0002878 270.5900  89.4929 14.98323705 37656,6950.212,96.107,574.078,570.077,0.0
55678.0,STARLINK-5314,PAYLOAD,2023-10-13 04:04:49,14.98331104,0.0002769,70.0011,219.396,269.659,90.4252,0.00019021,2.177e-05,0.0,0 STARLINK-5314,1 55678U 23021BC  23286.17001394  .00002177  00000-0  19021-3 0  9998,2 55678  70.0011 219.3960 0002769 269.6590  90.4252 14.98331104 37391,6950.189,96.107,573.979,570.13,0.0
55678.0,STARLINK-5314,PAYLOAD,2023-10-13 05:40:57,14.98332974,0.0002655,70.0012,219.2276,267.5719,92.5136,0.00020123,2.309e-05,0.0,0 STARLINK-5314,1 55678U 23021BC  23286.23677239  .00002309  00000-0  20123-3 0  9994,2 55678  70.0012 219.2276 0002655 267.5719  92.5136 14.98332974 37700,6950.184,96.107,573.894,570.203,0.0
55678.0,STARLINK-5314,PAYLOAD,2023-10-13 21:42:17,14.98331512,0.0002843,70.0013,217.5446,271.7415,88.3418,0.00013356,1.501e-05,0.0,0 STARLINK-5314,1 55678U 23021BC  23286.90437249  .00001501  00000-0  13356-3 0  9996,2 55678  70.0013 217.5446 0002843 271.7415  88.3418 14.98331512 37804,6950.188,96.107,574.029,570.077,0.0
55678.0,STARLINK-5314,PAYLOAD,2023-10-14 04:06:49,14.98337028,0.0002583,70.0019,216.8743,261.4586,98.6281,0.00018854,2.158e-05,0.0,0 STARLINK-5314,1 55678U 23021BC  23287.17140641  .00002158  00000-0  18854-3 0  9990,2 55678  70.0019 216.8743 0002583 261.4586  98.6281 14.98337028 37549,6950.171,96.107,573.831,570.241,0.0
55678.0,STARLINK-5314,PAYLOAD,2023-10-14 12:07:30,14.98330987,0.0003091,70.0012,216.0299,272.2082,87.8724,-3.0131e-05,-4.53e-06,0.0,0 STARLINK-5314,1 55678U 23021BC  23287.50521329 -.00000453  00000-0 -30131-4 0  9994,2 55678  70.0012 216.0299 0003091 272.2082  87.8724 14.98330987 37893,6950.19,96.107,574.203,569.907,0.0
55678.0,STARLINK-5314,PAYLOAD,2023-10-14 20:08:11,14.98317155,0.0002711,70.0031,215.1901,268.9078,91.177,-1.3045e-05,-2.48e-06,0.0,0 STARLINK-5314,1 55678U 23021BC  23287.83902356 -.00000248  00000-0 -13045-4 0  9990,2 55678  70.0031 215.1901 0002711 268.9078  91.1770 14.98317155 37643,6950.233,96.108,573.982,570.213,0.0
55678.0,STARLINK-5314,PAYLOAD,2023-10-14 21:44:20,14.98314464,0.0002868,70.0013,215.0204,268.6015,91.4816,-0.0002342,-2.885e-05,0.0,0 STARLINK-5314,1 55678U 23021BC  23287.90579187 -.00002885  00000-0 -23420-3 0  9996,2 55678  70.0013 215.0204 0002868 268.6015  91.4816 14.98314464 37957,6950.241,96.108,574.099,570.113,0.0
55678.0,STARLINK-5314,PAYLOAD,2023-10-15 05:45:01,14.98298578,0.0002924,70.0023,214.1803,266.6419,93.4405,0.00016107,1.828e-05,0.0,0 STARLINK-5314,1 55678U 23021BC  23288.23959498  .00001828  00000-0  16107-3 0  9998,2 55678  70.0023 214.1803 0002924 266.6419  93.4405 14.98298578 37708,6950.29,96.109,574.187,570.123,0.0
55678.0,STARLINK-5314,PAYLOAD,2023-10-15 20:10:12,14.98331851,0.000313,70.0004,212.6643,269.1387,90.9413,-9.059e-05,-1.174e-05,0.0,0 STARLINK-5314,1 55678U 23021BC  23288.84041996 -.00001174  00000-0 -90590-4 0  9995,2 55678  70.0004 212.6643 0003130 269.1387  90.9413 14.98331851 37796,6950.187,96.107,574.228,569.877,0.0
55678.0,STARLINK-5314,PAYLOAD,2023-10-15 21:46:20,14.98331056,0.0003302,70.0003,212.4947,274.6846,85.3936,-4.5978e-05,-6.42e-06,0.0,0 STARLINK-5314,1 55678U 23021BC  23288.90717921 -.00000642  00000-0 -45978-4 0  9999,2 55678  70.0003 212.4947 0003302 274.6846  85.3936 14.98331056 38103,6950.19,96.107,574.35,569.76,0.0
55678.0,STARLINK-5314,PAYLOAD,2023-10-16 05:46:59,14.98341275,0.0002664,70.0014,211.6546,262.4229,97.6628,6.9489e-05,7.37e-06,0.0,0 STARLINK-5314,1 55678U 23021BC  23289.24096852  .00000737  00000-0  69489-4 0  9996,2 55678  70.0014 211.6546 0002664 262.4229  97.6628 14.98341275 37850,6950.158,96.106,573.875,570.172,0.0
55678.0,STARLINK-5314,PAYLOAD,2023-10-17 12:13:33,14.98325726,0.0002109,70.0027,208.4555,271.3685,88.7232,0.00013482,1.516e-05,0.0,0 STARLINK-5314,1 55678U 23021BC  23290.50942100  .00001516  00000-0  13482-3 0  9990,2 55678  70.0027 208.4555 0002109 271.3685  88.7232 14.98325726 38044,6950.206,96.107,573.537,570.605,0.0
55678.0,STARLINK-5314,PAYLOAD,2023-10-18 02:38:46,14.98334063,0.0002751,70.0013,206.9401,263.9752,96.1094,-3.0463e-05,-4.56e-06,0.0,0 STARLINK-5314,1 55678U 23021BC  23291.11025556 -.00000456  00000-0 -30463-4 0  9998,2 55678  70.0013 206.9401 0002751 263.9752  96.1094 14.98334063 38433,6950.18,96.107,573.957,570.133,0.0
55678.0,STARLINK-5314,PAYLOAD,2023-10-18 12:15:34,14.98313646,0.0002553,70.002,205.9304,268.8565,91.2301,0.00033273,3.878e-05,0.0,0 STARLINK-5314,1 55678U 23021BC  23291.51082049  .00003878  00000-0  33273-3 0  9992,2 55678  70.0020 205.9304 0002553 268.8565  91.2301 14.98313646 38192,6950.243,96.108,573.883,570.334,0.0
55678.0,STARLINK-5314,PAYLOAD,2023-10-19 04:16:54,14.98336606,0.0002796,70.002,204.2485,271.4591,88.6248,0.000124,1.387e-05,0.0,0 STARLINK-5314,1 55678U 23021BC  23292.17840608  .00001387  00000-0  12400-3 0  9990,2 55678  70.0020 204.2485 0002796 271.4591  88.6248 14.98336606 38294,6950.172,96.107,573.981,570.094,0.0
55678.0,STARLINK-5314,PAYLOAD,2023-10-19 17:05:59,14.98330252,0.0002746,70.0023,202.9021,271.6821,88.4024,4.8236e-05,4.83e-06,0.0,0 STARLINK-5314,1 55678U 23021BC  23292.71249123  .00000483  00000-0  48236-4 0  9998,2 55678  70.0023 202.9021 0002746 271.6821  88.4024 14.98330252 38371,6950.192,96.107,573.966,570.149,0.0
55678.0,STARLINK-5314,PAYLOAD,2023-10-20 04:18:55,14.98338123,0.0002673,70.0019,201.7252,264.742,95.3434,3.7752e-05,3.58e-06,0.0,0 STARLINK-5314,1 55678U 23021BC  23293.17980454  .00000358  00000-0  37752-4 0  9990,2 55678  70.0019 201.7252 0002673 264.7420  95.3434 14.98338123 38441,6950.168,96.106,573.891,570.175,0.0
55678.0,STARLINK-5314,PAYLOAD,2023-10-20 21:56:25,14.98318706,0.000268,70.0021,199.8726,270.655,89.4302,-0.00017886,-2.226e-05,0.0,0 STARLINK-5314,1 55678U 23021BC  23293.91418572 -.00002226  00000-0 -17886-3 0  9992,2 55678  70.0021 199.8726 0002680 270.6550  89.4302 14.98318706 38853,6950.228,96.108,573.955,570.23,0.0
